NORAD_CAT_ID,OBJECT_NAME,OBJECT_TYPE,EPOCH,MEAN_MOTION,ECCENTRICITY,INCLINATION,RA_OF_ASC_NODE,ARG_OF_PERICENTER,MEAN_ANOMALY,BSTAR,MEAN_MOTION_DOT,MEAN_MOTION_DDOT,TLE_LINE0,TLE_LINE1,TLE_LINE2,SEMIMAJOR_AXIS,PERIOD,APOGEE,PERIGEE,DECAYED
54773.0,STARLINK-5453,PAYLOAD,2024-04-01 09:31:58,15.08843692,0.000135,53.2183,339.1566,94.3309,265.7838,0.000202,2.929e-05,0.0,0 STARLINK-5453,1 54773U 22175R   24092.39720752  .00002929  00000-0  20200-3 0  9994,2 54773  53.2183 339.1566 0001350  94.3309 265.7838 15.08843692 70989,6917.869,95.437,540.668,538.8,0.0
54773.0,STARLINK-5453,PAYLOAD,2024-04-02 09:22:45,15.08840516,0.000134,53.2185,334.6962,84.0965,276.0179,7.6704e-05,9.33e-06,0.0,0 STARLINK-5453,1 54773U 22175R   24093.39080972  .00000933  00000-0  76704-4 0  9992,2 54773  53.2185 334.6962 0001340  84.0965 276.0179 15.08840516 71137,6917.879,95.438,540.671,538.817,0.0
54773.0,STARLINK-5453,PAYLOAD,2024-04-02 22:05:51,15.08837846,0.0001275,53.2182,332.3178,89.0344,271.0795,1.3946e-05,-6.6e-07,0.0,0 STARLINK-5453,1 54773U 22175R   24093.92073176 -.00000066  00000-0  13946-4 0  9996,2 54773  53.2182 332.3178 0001275  89.0344 271.0795 15.08837846 73370,6917.887,95.438,540.634,538.87,0.0
54773.0,STARLINK-5453,PAYLOAD,2024-04-03 09:13:33,15.08838361,0.0001174,53.2185,330.2358,88.6952,271.4175,9.3843e-05,1.206e-05,0.0,0 STARLINK-5453,1 54773U 22175R   24094.38441263  .00001206  00000-0  93843-4 0  9993,2 54773  53.2185 330.2358 0001174  88.6952 271.4175 15.08838361 73445,6917.885,95.438,540.563,538.938,0.0
54773.0,STARLINK-5453,PAYLOAD,2024-04-03 21:56:38,15.08839456,0.0001186,53.2172,327.8554,94.998,265.1148,0.00022042,3.222e-05,0.0,0 STARLINK-5453,1 54773U 22175R   24094.91433507  .00003222  00000-0  22042-3 0  9996,2 54773  53.2172 327.8554 0001186  94.9980 265.1148 15.08839456 71360,6917.882,95.438,540.568,538.927,0.0
54773.0,STARLINK-5453,PAYLOAD,2024-04-04 09:04:20,15.0884551,0.0001252,53.2174,325.7743,101.9856,258.1277,0.00015118,2.119e-05,0.0,0 STARLINK-5453,1 54773U 22175R   24095.37801193  .00002119  00000-0  15118-3 0  9997,2 54773  53.2174 325.7743 0001252 101.9856 258.1277 15.08845510 73594,6917.864,95.437,540.595,538.862,0.0
54773.0,STARLINK-5453,PAYLOAD,2024-04-04 21:47:25,15.08842413,0.0001283,53.2177,323.3956,93.9765,266.1373,0.00032364,4.867e-05,0.0,0 STARLINK-5453,1 54773U 22175R   24095.90793470  .00004867  00000-0  32364-3 0  9998,2 54773  53.2177 323.3956 0001283  93.9765 266.1373 15.08842413 73674,6917.873,95.437,540.626,538.85,0.0
54773.0,STARLINK-5453,PAYLOAD,2024-04-05 15:16:40,15.08839595,0.0001356,53.218,320.1243,92.9068,267.2079,5.5341e-05,5.93e-06,0.0,0 STARLINK-5453,1 54773U 22175R   24096.63657470  .00000593  00000-0  55341-4 0  9991,2 54773  53.2180 320.1243 0001356  92.9068 267.2079 15.08839595 73782,6917.882,95.438,540.685,538.809,0.0
54773.0,STARLINK-5453,PAYLOAD,2024-04-05 21:38:12,15.08840804,0.0001324,53.2182,318.9347,93.4809,266.6334,8.1036e-05,1.002e-05,0.0,0 STARLINK-5453,1 54773U 22175R   24096.90153416  .00001002  00000-0  81036-4 0  9998,2 54773  53.2182 318.9347 0001324  93.4809 266.6334 15.08840804 71665,6917.878,95.438,540.659,538.827,0.0
54773.0,STARLINK-5453,PAYLOAD,2024-04-06 07:10:31,15.0884029,0.0001292,53.218,317.1509,92.151,267.963,4.7455e-05,4.67e-06,0.0,0 STARLINK-5453,1 54773U 22175R   24097.29897496  .00000467  00000-0  47455-4 0  9995,2 54773  53.2180 317.1509 0001292  92.1510 267.9630 15.08840290 73881,6917.88,95.438,540.638,538.851,0.0
54773.0,STARLINK-5453,PAYLOAD,2024-04-06 21:28:59,15.08837015,0.0001335,53.2183,314.4752,92.6144,267.5001,6.3066e-06,-1.88e-06,0.0,0 STARLINK-5453,1 54773U 22175R   24097.89513872 -.00000188  00000-0  63066-5 0  9992,2 54773  53.2183 314.4752 0001335  92.6144 267.5001 15.08837015 71810,6917.89,95.438,540.678,538.831,0.0
54773.0,STARLINK-5453,PAYLOAD,2024-04-07 14:58:14,15.08837857,0.0001381,53.2182,311.2054,95.6127,264.5022,8.321e-05,1.037e-05,0.0,0 STARLINK-5453,1 54773U 22175R   24098.62377867  .00001037  00000-0  83210-4 0  9991,2 54773  53.2182 311.2054 0001381  95.6127 264.5022 15.08837857 74080,6917.887,95.438,540.707,538.797,0.0
54773.0,STARLINK-5453,PAYLOAD,2024-04-07 21:19:46,15.08840611,0.0001372,53.2181,310.0159,95.6227,264.4921,9.8378e-05,1.278e-05,0.0,0 STARLINK-5453,1 54773U 22175R   24098.88873657  .00001278  00000-0  98378-4 0  9995,2 54773  53.2181 310.0159 0001372  95.6227 264.4921 15.08840611 74127,6917.879,95.438,540.693,538.794,0.0
54773.0,STARLINK-5453,PAYLOAD,2024-04-08 13:13:38,15.08841645,0.000139,53.2189,307.0423,91.3547,268.7605,0.00013015,1.784e-05,0.0,0 STARLINK-5453,1 54773U 22175R   24099.55113618  .00001784  00000-0  13015-3 0  9990,2 54773  53.2189 307.0423 0001390  91.3547 268.7605 15.08841645 72068,6917.875,95.437,540.702,538.779,0.0
54773.0,STARLINK-5453,PAYLOAD,2024-04-09 06:42:52,15.08841006,0.0001386,53.2189,303.7714,91.6703,268.4448,9.9024e-05,1.288e-05,0.0,0 STARLINK-5453,1 54773U 22175R   24100.27977763  .00001288  00000-0  99024-4 0  9995,2 54773  53.2189 303.7714 0001386  91.6703 268.4448 15.08841006 74331,6917.877,95.437,540.701,538.783,0.0
54773.0,STARLINK-5453,PAYLOAD,2024-04-09 19:25:57,15.08841476,0.000142,53.2197,301.3928,91.8965,268.219,6.0949e-05,6.82e-06,0.0,0 STARLINK-5453,1 54773U 22175R   24100.80969844  .00000682  00000-0  60949-4 0  9996,2 54773  53.2197 301.3928 0001420  91.8965 268.2190 15.08841476 72254,6917.876,95.437,540.723,538.759,0.0
54773.0,STARLINK-5453,PAYLOAD,2024-04-10 06:33:39,15.08840125,0.000129,53.2166,299.3094,90.1673,269.9467,1.1635e-05,-1.03e-06,0.0,0 STARLINK-5453,1 54773U 22175R   24101.27337960 -.00000103  00000-0  11635-4 0  9993,2 54773  53.2166 299.3094 0001290  90.1673 269.9467 15.08840125 74485,6917.88,95.438,540.637,538.853,0.0
54773.0,STARLINK-5453,PAYLOAD,2024-04-10 19:16:45,15.08836516,0.0001346,53.2159,296.93,90.3438,269.7708,2.298e-05,7.8e-07,0.0,0 STARLINK-5453,1 54773U 22175R   24101.80330207  .00000078  00000-0  22980-4 0  9994,2 54773  53.2159 296.9300 0001346  90.3438 269.7708 15.08836516 72408,6917.891,95.438,540.687,538.825,0.0
54773.0,STARLINK-5453,PAYLOAD,2024-04-11 06:24:26,15.08840067,0.0001323,53.2178,294.8476,93.0827,267.0317,6.5695e-05,7.58e-06,0.0,0 STARLINK-5453,1 54773U 22175R   24102.26697873  .00000758  00000-0  65695-4 0  9995,2 54773  53.2178 294.8476 0001323  93.0827 267.0317 15.08840067 74637,6917.88,95.438,540.66,538.83,0.0
54773.0,STARLINK-5453,PAYLOAD,2024-04-11 19:07:31,15.08843547,0.0001304,53.2175,292.4685,93.1096,267.0045,8.9165e-05,1.132e-05,0.0,0 STARLINK-5453,1 54773U 22175R   24102.79689588  .00001132  00000-0  89165-4 0  9992,2 54773  53.2175 292.4685 0001304  93.1096 267.0045 15.08843547 72551,6917.87,95.437,540.637,538.832,0.0
54773.0,STARLINK-5453,PAYLOAD,2024-04-11 22:18:17,15.08843716,0.0001348,53.2176,291.8738,92.558,267.5566,0.00012928,1.77e-05,0.0,0 STARLINK-5453,1 54773U 22175R   24102.92937458  .00001770  00000-0  12928-3 0  9999,2 54773  53.2176 291.8738 0001348  92.5580 267.5566 15.08843716 74736,6917.869,95.437,540.667,538.802,0.0
54773.0,STARLINK-5453,PAYLOAD,2024-04-12 22:09:05,15.08842537,0.0001251,53.2172,287.4141,85.8505,274.263,6.9051e-05,8.11e-06,0.0,0 STARLINK-5453,1 54773U 22175R   24103.92297734  .00000811  00000-0  69051-4 0  9991,2 54773  53.2172 287.4141 0001251  85.8505 274.2630 15.08842537 74889,6917.873,95.437,540.603,538.872,0.0
54773.0,STARLINK-5453,PAYLOAD,2024-04-13 17:13:43,15.0883854,0.0001436,53.2182,283.8438,96.0597,264.0559,-6.78e-06,-3.96e-06,0.0,0 STARLINK-5453,1 54773U 22175R   24104.71786290 -.00000396  00000-0 -67800-5 0  9990,2 54773  53.2182 283.8438 0001436  96.0597 264.0559 15.08838540 75000,6917.885,95.438,540.743,538.756,0.0
54773.0,STARLINK-5453,PAYLOAD,2024-04-13 21:59:52,15.08838066,0.0001453,53.2181,282.9502,98.2145,261.9012,1.256e-05,-8.8e-07,0.0,0 STARLINK-5453,1 54773U 22175R   24104.91658262 -.00000088  00000-0  12560-4 0  9998,2 54773  53.2181 282.9502 0001453  98.2145 261.9012 15.08838066 72878,6917.886,95.438,540.756,538.746,0.0
54773.0,STARLINK-5453,PAYLOAD,2024-04-14 18:39:53,15.08840823,0.0001412,53.2182,279.0852,84.2691,275.8462,0.0001361,1.879e-05,0.0,0 STARLINK-5453,1 54773U 22175R   24105.77769968  .00001879  00000-0  13610-3 0  9993,2 54773  53.2182 279.0852 0001412  84.2691 275.8462 15.08840823 75162,6917.878,95.438,540.72,538.766,0.0
54773.0,STARLINK-5453,PAYLOAD,2024-04-15 10:33:44,15.08840537,0.0001592,53.2186,276.1129,86.6824,273.4351,9.4183e-05,1.211e-05,0.0,0 STARLINK-5453,1 54773U 22175R   24106.44010267  .00001211  00000-0  94183-4 0  9994,2 54773  53.2186 276.1129 0001592  86.6824 273.4351 15.08840537 73109,6917.879,95.438,540.845,538.642,0.0
54773.0,STARLINK-5453,PAYLOAD,2024-04-15 20:06:05,15.08824935,7.18e-05,53.2181,274.327,59.0518,301.0544,-1.0416e-05,-4.53e-06,0.0,0 STARLINK-5453,1 54773U 22175R   24106.83755829 -.00000453  00000-0 -10416-4 0  9993,2 54773  53.2181 274.3270 0000718  59.0518 301.0544 15.08824935 73166,6917.926,95.439,540.288,539.295,0.0
54773.0,STARLINK-5453,PAYLOAD,2024-04-16 04:03:00,15.08831036,9.19e-05,53.2182,272.8449,87.9834,272.1264,-5.1496e-05,-1.107e-05,0.0,0 STARLINK-5453,1 54773U 22175R   24107.16875900 -.00001107  00000-0 -51496-4 0  9993,2 54773  53.2182 272.8449 0000919  87.9834 272.1264 15.08831036 75374,6917.908,95.438,540.409,539.137,0.0
54773.0,STARLINK-5453,PAYLOAD,2024-04-16 18:21:27,15.0885929,0.0001173,53.2171,270.1674,86.4499,273.6628,0.00038626,5.868e-05,0.0,0 STARLINK-5453,1 54773U 22175R   24107.76490157  .00005868  00000-0  38626-3 0  9991,2 54773  53.2171 270.1674 0001173  86.4499 273.6628 15.08859290 73300,6917.821,95.436,540.498,538.875,0.0
54773.0,STARLINK-5453,PAYLOAD,2024-04-17 10:15:20,15.08831629,8.75e-05,53.2184,267.1921,93.5509,266.5583,0.00021773,3.178e-05,0.0,0 STARLINK-5453,1 54773U 22175R   24108.42731811  .00003178  00000-0  21773-3 0  9997,2 54773  53.2184 267.1921 0000875  93.5509 266.5583 15.08831629 73402,6917.906,95.438,540.376,539.166,0.0
